{
  "type": "FeatureCollection",
  "features": [
    {
      "type": "Feature",
      "properties": {
        "norad_id": 40069,
        "name": "METEOR-M 2",
        "group": "weather",
        "lat": 19.981836196777433,
        "lon": -44.598505140272394,
        "alt_km": 823.6938252982454,
        "timestamp": "2025-12-06T16:45:42.370161+00:00",
        "meta_object_name": "METEOR-M 2",
        "meta_object_id": "2014-037A",
        "meta_epoch": "2025-12-06T06:31:48.558720",
        "meta_mean_motion": 14.21382777,
        "meta_eccentricity": 0.00047839,
        "meta_inclination": 98.4896,
        "meta_ra_of_asc_node": 318.1048,
        "meta_arg_of_pericenter": 230.8074,
        "meta_mean_anomaly": 129.2679,
        "meta_ephemeris_type": 0,
        "meta_classification_type": "U",
        "meta_norad_cat_id": 40069,
        "meta_element_set_no": 999,
        "meta_rev_at_epoch": 59191,
        "meta_bstar": 0.00016180823,
        "meta_mean_motion_dot": 3.11e-06,
        "meta_mean_motion_ddot": 0,
        "tle_line1": "1 40069U 14037A   25340.27208980  .00000311  00000+0  16181-3 0  9998",
        "tle_line2": "2 40069  98.4896 318.1048 0004783 230.8074 129.2679 14.21382777591919"
      },
      "geometry": {
        "type": "Point",
        "coordinates": [
          -44.598505140272394,
          19.981836196777433
        ]
      }
    },
    {
      "type": "Feature",
      "properties": {
        "norad_id": 40267,
        "name": "HIMAWARI-8",
        "group": "weather",
        "lat": 0.017676552486749354,
        "lon": 107.8200649059731,
        "alt_km": 35792.49591065579,
        "timestamp": "2025-12-06T16:45:42.370172+00:00",
        "meta_object_name": "HIMAWARI-8",
        "meta_object_id": "2014-060A",
        "meta_epoch": "2025-12-06T05:57:38.626272",
        "meta_mean_motion": 1.0026977,
        "meta_eccentricity": 0.00013737,
        "meta_inclination": 0.0515,
        "meta_ra_of_asc_node": 138.2854,
        "meta_arg_of_pericenter": 150.3275,
        "meta_mean_anomaly": 16.7622,
        "meta_ephemeris_type": 0,
        "meta_classification_type": "U",
        "meta_norad_cat_id": 40267,
        "meta_element_set_no": 999,
        "meta_rev_at_epoch": 4082,
        "meta_bstar": 0,
        "meta_mean_motion_dot": -2.67e-06,
        "meta_mean_motion_ddot": 0,
        "tle_line1": "1 40267U 14060A   25340.24836373 -.00000267  00000+0  00000+0 0  9994",
        "tle_line2": "2 40267   0.0515 138.2854 0001373 150.3275  16.7622  1.00269770 40820"
      },
      "geometry": {
        "type": "Point",
        "coordinates": [
          107.8200649059731,
          0.017676552486749354
        ]
      }
    },
    {
      "type": "Feature",
      "properties": {
        "norad_id": 40367,
        "name": "FENGYUN 2G",
        "group": "weather",
        "lat": -0.7203714048127574,
        "lon": 66.86753958319024,
        "alt_km": 35800.01864748082,
        "timestamp": "2025-12-06T16:45:42.370184+00:00",
        "meta_object_name": "FENGYUN 2G",
        "meta_object_id": "2014-090A",
        "meta_epoch": "2025-12-05T19:18:26.245152",
        "meta_mean_motion": 1.002665,
        "meta_eccentricity": 0.00031526,
        "meta_inclination": 5.1497,
        "meta_ra_of_asc_node": 75.1781,
        "meta_arg_of_pericenter": 195.2891,
        "meta_mean_anomaly": 193.6781,
        "meta_ephemeris_type": 0,
        "meta_classification_type": "U",
        "meta_norad_cat_id": 40367,
        "meta_element_set_no": 999,
        "meta_rev_at_epoch": 4006,
        "meta_bstar": 0,
        "meta_mean_motion_dot": -2.95e-06,
        "meta_mean_motion_ddot": 0,
        "tle_line1": "1 40367U 14090A   25339.80447043 -.00000295  00000+0  00000+0 0  9991",
        "tle_line2": "2 40367   5.1497  75.1781 0003152 195.2891 193.6781  1.00266500 40068"
      },
      "geometry": {
        "type": "Point",
        "coordinates": [
          66.86753958319024,
          -0.7203714048127574
        ]
      }
    },
    {
      "type": "Feature",
      "properties": {
        "norad_id": 40732,
        "name": "METEOSAT-11 (MSG-4)",
        "group": "weather",
        "lat": -2.709781891461159,
        "lon": -23.449651453397177,
        "alt_km": 35791.56780049596,
        "timestamp": "2025-12-06T16:45:42.370197+00:00",
        "meta_object_name": "METEOSAT-11 (MSG-4)",
        "meta_object_id": "2015-034A",
        "meta_epoch": "2025-12-06T06:51:43.674624",
        "meta_mean_motion": 1.00265459,
        "meta_eccentricity": 9.763e-05,
        "meta_inclination": 2.7192,
        "meta_ra_of_asc_node": 72.0205,
        "meta_arg_of_pericenter": 118.5529,
        "meta_mean_anomaly": 357.0911,
        "meta_ephemeris_type": 0,
        "meta_classification_type": "U",
        "meta_norad_cat_id": 40732,
        "meta_element_set_no": 999,
        "meta_rev_at_epoch": 528,
        "meta_bstar": 0,
        "meta_mean_motion_dot": 6.8e-07,
        "meta_mean_motion_ddot": 0,
        "tle_line1": "1 40732U 15034A   25340.28592216  .00000068  00000+0  00000+0 0  9990",
        "tle_line2": "2 40732   2.7192  72.0205 0000976 118.5529 357.0911  1.00265459  5281"
      },
      "geometry": {
        "type": "Point",
        "coordinates": [
          -23.449651453397177,
          -2.709781891461159
        ]
      }
    },
    {
      "type": "Feature",
      "properties": {
        "norad_id": 41105,
        "name": "ELEKTRO-L 2",
        "group": "weather",
        "lat": -5.377798904233398,
        "lon": -47.471271455629626,
        "alt_km": 35773.8689264925,
        "timestamp": "2025-12-06T16:45:42.370209+00:00",
        "meta_object_name": "ELEKTRO-L 2",
        "meta_object_id": "2015-074A",
        "meta_epoch": "2025-12-06T01:36:40.788864",
        "meta_mean_motion": 1.00271999,
        "meta_eccentricity": 0.00039355,
        "meta_inclination": 6.208,
        "meta_ra_of_asc_node": 72.9071,
        "meta_arg_of_pericenter": 200.4894,
        "meta_mean_anomaly": 171.3714,
        "meta_ephemeris_type": 0,
        "meta_classification_type": "U",
        "meta_norad_cat_id": 41105,
        "meta_element_set_no": 999,
        "meta_rev_at_epoch": 3657,
        "meta_bstar": 0,
        "meta_mean_motion_dot": -1.12e-06,
        "meta_mean_motion_ddot": 0,
        "tle_line1": "1 41105U 15074A   25340.06713876 -.00000112  00000+0  00000+0 0  9993",
        "tle_line2": "2 41105   6.2080  72.9071 0003935 200.4894 171.3714  1.00271999 36575"
      },
      "geometry": {
        "type": "Point",
        "coordinates": [
          -47.471271455629626,
          -5.377798904233398
        ]
      }
    },
    {
      "type": "Feature",
      "properties": {
        "norad_id": 41752,
        "name": "INSAT-3DR",
        "group": "weather",
        "lat": -0.02720484420012558,
        "lon": 41.28987164408702,
        "alt_km": 35827.77374974373,
        "timestamp": "2025-12-06T16:45:42.370221+00:00",
        "meta_object_name": "INSAT-3DR",
        "meta_object_id": "2016-054A",
        "meta_epoch": "2025-12-06T03:44:43.524384",
        "meta_mean_motion": 1.00269771,
        "meta_eccentricity": 0.00145541,
        "meta_inclination": 0.0757,
        "meta_ra_of_asc_node": 87.8911,
        "meta_arg_of_pericenter": 181.6165,
        "meta_mean_anomaly": 295.8925,
        "meta_ephemeris_type": 0,
        "meta_classification_type": "U",
        "meta_norad_cat_id": 41752,
        "meta_element_set_no": 999,
        "meta_rev_at_epoch": 3388,
        "meta_bstar": 0,
        "meta_mean_motion_dot": -6.9e-07,
        "meta_mean_motion_ddot": 0,
        "tle_line1": "1 41752U 16054A   25340.15605931 -.00000069  00000+0  00000+0 0  9993",
        "tle_line2": "2 41752   0.0757  87.8911 0014554 181.6165 295.8925  1.00269771 33886"
      },
      "geometry": {
        "type": "Point",
        "coordinates": [
          41.28987164408702,
          -0.02720484420012558
        ]
      }
    },
    {
      "type": "Feature",
      "properties": {
        "norad_id": 41836,
        "name": "HIMAWARI-9",
        "group": "weather",
        "lat": 0.017971669464949793,
        "lon": 107.91277604254384,
        "alt_km": 35794.26030934706,
        "timestamp": "2025-12-06T16:45:42.370234+00:00",
        "meta_object_name": "HIMAWARI-9",
        "meta_object_id": "2016-064A",
        "meta_epoch": "2025-12-05T16:04:44.799744",
        "meta_mean_motion": 1.00271955,
        "meta_eccentricity": 0.00019742,
        "meta_inclination": 0.0132,
        "meta_ra_of_asc_node": 58.9298,
        "meta_arg_of_pericenter": 241.9648,
        "meta_mean_anomaly": 155.7705,
        "meta_ephemeris_type": 0,
        "meta_classification_type": "U",
        "meta_norad_cat_id": 41836,
        "meta_element_set_no": 999,
        "meta_rev_at_epoch": 3327,
        "meta_bstar": 0,
        "meta_mean_motion_dot": -2.64e-06,
        "meta_mean_motion_ddot": 0,
        "tle_line1": "1 41836U 16064A   25339.66996296 -.00000264  00000+0  00000+0 0  9995",
        "tle_line2": "2 41836   0.0132  58.9298 0001974 241.9648 155.7705  1.00271955 33271"
      },
      "geometry": {
        "type": "Point",
        "coordinates": [
          107.91277604254384,
          0.017971669464949793
        ]
      }
    }
  ]
}